CCSDS_OMM_VERS = 2.0
CREATION_DATE  = 
ORIGINATOR     = 

OBJECT_NAME    = STARLINK-37101
OBJECT_ID      = 2026-054C
CENTER_NAME    = EARTH
REF_FRAME      = TEME
TIME_SYSTEM    = UTC
MEAN_ELEMENT_THEORY = SGP/SGP4

EPOCH          = 2026-03-26T12:00:01.999296
MEAN_MOTION    = 15.80900507
ECCENTRICITY   = .0001142
INCLINATION    = 53.1592
RA_OF_ASC_NODE = 228.4104
ARG_OF_PERICENTER = 87.2423
MEAN_ANOMALY   = 232.9795

EPHEMERIS_TYPE = 0
CLASSIFICATION_TYPE = U
NORAD_CAT_ID   = 68234
ELEMENT_SET_NO = 999
REV_AT_EPOCH   = 261
BSTAR          = -.17484E-3
MEAN_MOTION_DOT = -.3511E-3
MEAN_MOTION_DDOT = 0

CCSDS_OMM_VERS = 2.0
CREATION_DATE  = 
ORIGINATOR     = 

OBJECT_NAME    = STARLINK-36963
OBJECT_ID      = 2026-054D
CENTER_NAME    = EARTH
REF_FRAME      = TEME
TIME_SYSTEM    = UTC
MEAN_ELEMENT_THEORY = SGP/SGP4

EPOCH          = 2026-03-26T12:00:01.999296
MEAN_MOTION    = 15.80889841
ECCENTRICITY   = .0000976
INCLINATION    = 53.1592
RA_OF_ASC_NODE = 228.3930
ARG_OF_PERICENTER = 88.0857
MEAN_ANOMALY   = 240.6821

EPHEMERIS_TYPE = 0
CLASSIFICATION_TYPE = U
NORAD_CAT_ID   = 68235
ELEMENT_SET_NO = 999
REV_AT_EPOCH   = 261
BSTAR          = -.12211E-3
MEAN_MOTION_DOT = -.24748E-3
MEAN_MOTION_DDOT = 0

CCSDS_OMM_VERS = 2.0
CREATION_DATE  = 
ORIGINATOR     = 

OBJECT_NAME    = STARLINK-37127
OBJECT_ID      = 2026-054E
CENTER_NAME    = EARTH
REF_FRAME      = TEME
TIME_SYSTEM    = UTC
MEAN_ELEMENT_THEORY = SGP/SGP4

EPOCH          = 2026-03-26T12:00:01.999296
MEAN_MOTION    = 15.81173967
ECCENTRICITY   = .0000786
INCLINATION    = 53.1593
RA_OF_ASC_NODE = 228.4018
ARG_OF_PERICENTER = 89.9111
MEAN_ANOMALY   = 234.5266

EPHEMERIS_TYPE = 0
CLASSIFICATION_TYPE = U
NORAD_CAT_ID   = 68236
ELEMENT_SET_NO = 999
REV_AT_EPOCH   = 269
BSTAR          = -.40583E-2
MEAN_MOTION_DOT = -.746261E-2
MEAN_MOTION_DDOT = 0

CCSDS_OMM_VERS = 2.0
CREATION_DATE  = 
ORIGINATOR     = 

OBJECT_NAME    = STARLINK-37095
OBJECT_ID      = 2026-054F
CENTER_NAME    = EARTH
REF_FRAME      = TEME
TIME_SYSTEM    = UTC
MEAN_ELEMENT_THEORY = SGP/SGP4

EPOCH          = 2026-03-26T12:00:01.999296
MEAN_MOTION    = 15.80915526
ECCENTRICITY   = .0001419
INCLINATION    = 53.1591
RA_OF_ASC_NODE = 228.3840
ARG_OF_PERICENTER = 86.4783
MEAN_ANOMALY   = 246.5537

EPHEMERIS_TYPE = 0
CLASSIFICATION_TYPE = U
NORAD_CAT_ID   = 68237
ELEMENT_SET_NO = 999
REV_AT_EPOCH   = 261
BSTAR          = -.34463E-3
MEAN_MOTION_DOT = -.68318E-3
MEAN_MOTION_DDOT = 0

CCSDS_OMM_VERS = 2.0
CREATION_DATE  = 
ORIGINATOR     = 

OBJECT_NAME    = STARLINK-37097
OBJECT_ID      = 2026-054G
CENTER_NAME    = EARTH
REF_FRAME      = TEME
TIME_SYSTEM    = UTC
MEAN_ELEMENT_THEORY = SGP/SGP4

EPOCH          = 2026-03-26T12:00:01.999296
MEAN_MOTION    = 15.80903916
ECCENTRICITY   = .0000808
INCLINATION    = 53.1591
RA_OF_ASC_NODE = 228.3753
ARG_OF_PERICENTER = 115.6848
MEAN_ANOMALY   = 221.6396

EPHEMERIS_TYPE = 0
CLASSIFICATION_TYPE = U
NORAD_CAT_ID   = 68238
ELEMENT_SET_NO = 999
REV_AT_EPOCH   = 261
BSTAR          = -.29789E-3
MEAN_MOTION_DOT = -.59172E-3
MEAN_MOTION_DDOT = 0

CCSDS_OMM_VERS = 2.0
CREATION_DATE  = 
ORIGINATOR     = 

OBJECT_NAME    = STARLINK-37096
OBJECT_ID      = 2026-054H
CENTER_NAME    = EARTH
REF_FRAME      = TEME
TIME_SYSTEM    = UTC
MEAN_ELEMENT_THEORY = SGP/SGP4

EPOCH          = 2026-03-26T12:00:01.999296
MEAN_MOTION    = 15.80865847
ECCENTRICITY   = .0001263
INCLINATION    = 53.1591
RA_OF_ASC_NODE = 228.3576
ARG_OF_PERICENTER = 80.2559
MEAN_ANOMALY   = 265.6118

EPHEMERIS_TYPE = 0
CLASSIFICATION_TYPE = U
NORAD_CAT_ID   = 68239
ELEMENT_SET_NO = 999
REV_AT_EPOCH   = 261
BSTAR          = .69184E-4
MEAN_MOTION_DOT = .12972E-3
MEAN_MOTION_DDOT = 0

CCSDS_OMM_VERS = 2.0
CREATION_DATE  = 
ORIGINATOR     = 

OBJECT_NAME    = STARLINK-37092
OBJECT_ID      = 2026-054J
CENTER_NAME    = EARTH
REF_FRAME      = TEME
TIME_SYSTEM    = UTC
MEAN_ELEMENT_THEORY = SGP/SGP4

EPOCH          = 2026-03-26T12:00:01.999296
MEAN_MOTION    = 15.80889209
ECCENTRICITY   = .0001467
INCLINATION    = 53.1592
RA_OF_ASC_NODE = 228.3666
ARG_OF_PERICENTER = 37.5575
MEAN_ANOMALY   = 303.9967

EPHEMERIS_TYPE = 0
CLASSIFICATION_TYPE = U
NORAD_CAT_ID   = 68240
ELEMENT_SET_NO = 999
REV_AT_EPOCH   = 261
BSTAR          = .62965E-4
MEAN_MOTION_DOT = .11754E-3
MEAN_MOTION_DDOT = 0

CCSDS_OMM_VERS = 2.0
CREATION_DATE  = 
ORIGINATOR     = 

OBJECT_NAME    = STARLINK-37094
OBJECT_ID      = 2026-054K
CENTER_NAME    = EARTH
REF_FRAME      = TEME
TIME_SYSTEM    = UTC
MEAN_ELEMENT_THEORY = SGP/SGP4

EPOCH          = 2026-03-26T12:00:01.999296
MEAN_MOTION    = 15.80886974
ECCENTRICITY   = .0001072
INCLINATION    = 53.1591
RA_OF_ASC_NODE = 228.3487
ARG_OF_PERICENTER = 97.0073
MEAN_ANOMALY   = 253.1424

EPHEMERIS_TYPE = 0
CLASSIFICATION_TYPE = U
NORAD_CAT_ID   = 68241
ELEMENT_SET_NO = 999
REV_AT_EPOCH   = 260
BSTAR          = -.20932E-3
MEAN_MOTION_DOT = -.41838E-3
MEAN_MOTION_DDOT = 0

CCSDS_OMM_VERS = 2.0
CREATION_DATE  = 
ORIGINATOR     = 

OBJECT_NAME    = STARLINK-36356
OBJECT_ID      = 2026-054L
CENTER_NAME    = EARTH
REF_FRAME      = TEME
TIME_SYSTEM    = UTC
MEAN_ELEMENT_THEORY = SGP/SGP4

EPOCH          = 2026-03-26T12:00:01.999296
MEAN_MOTION    = 15.80937895
ECCENTRICITY   = .0000995
INCLINATION    = 53.1592
RA_OF_ASC_NODE = 228.3397
ARG_OF_PERICENTER = 77.9274
MEAN_ANOMALY   = 276.4752

EPHEMERIS_TYPE = 0
CLASSIFICATION_TYPE = U
NORAD_CAT_ID   = 68242
ELEMENT_SET_NO = 999
REV_AT_EPOCH   = 265
BSTAR          = -.76655E-3
MEAN_MOTION_DOT = -.149843E-2
MEAN_MOTION_DDOT = 0

CCSDS_OMM_VERS = 2.0
CREATION_DATE  = 
ORIGINATOR     = 

OBJECT_NAME    = STARLINK-36345
OBJECT_ID      = 2026-054M
CENTER_NAME    = EARTH
REF_FRAME      = TEME
TIME_SYSTEM    = UTC
MEAN_ELEMENT_THEORY = SGP/SGP4

EPOCH          = 2026-03-26T12:00:01.999296
MEAN_MOTION    = 15.81003524
ECCENTRICITY   = .0001184
INCLINATION    = 53.1592
RA_OF_ASC_NODE = 228.3312
ARG_OF_PERICENTER = 62.7180
MEAN_ANOMALY   = 295.9036

EPHEMERIS_TYPE = 0
CLASSIFICATION_TYPE = U
NORAD_CAT_ID   = 68243
ELEMENT_SET_NO = 999
REV_AT_EPOCH   = 265
BSTAR          = -.13534E-2
MEAN_MOTION_DOT = -.261468E-2
MEAN_MOTION_DDOT = 0

CCSDS_OMM_VERS = 2.0
CREATION_DATE  = 
ORIGINATOR     = 

OBJECT_NAME    = STARLINK-36310
OBJECT_ID      = 2026-054N
CENTER_NAME    = EARTH
REF_FRAME      = TEME
TIME_SYSTEM    = UTC
MEAN_ELEMENT_THEORY = SGP/SGP4

EPOCH          = 2026-03-26T12:00:01.999296
MEAN_MOTION    = 15.81051085
ECCENTRICITY   = .0001499
INCLINATION    = 53.1593
RA_OF_ASC_NODE = 228.3132
ARG_OF_PERICENTER = 86.1814
MEAN_ANOMALY   = 280.9607

EPHEMERIS_TYPE = 0
CLASSIFICATION_TYPE = U
NORAD_CAT_ID   = 68244
ELEMENT_SET_NO = 999
REV_AT_EPOCH   = 265
BSTAR          = -.16312E-2
MEAN_MOTION_DOT = -.313836E-2
MEAN_MOTION_DDOT = 0

CCSDS_OMM_VERS = 2.0
CREATION_DATE  = 
ORIGINATOR     = 

OBJECT_NAME    = STARLINK-36247
OBJECT_ID      = 2026-054P
CENTER_NAME    = EARTH
REF_FRAME      = TEME
TIME_SYSTEM    = UTC
MEAN_ELEMENT_THEORY = SGP/SGP4

EPOCH          = 2026-03-26T12:00:01.999296
MEAN_MOTION    = 15.80900906
ECCENTRICITY   = .0000656
INCLINATION    = 53.1592
RA_OF_ASC_NODE = 228.3223
ARG_OF_PERICENTER = 105.1900
MEAN_ANOMALY   = 257.7576

EPHEMERIS_TYPE = 0
CLASSIFICATION_TYPE = U
NORAD_CAT_ID   = 68245
ELEMENT_SET_NO = 999
REV_AT_EPOCH   = 265
BSTAR          = -.11444E-3
MEAN_MOTION_DOT = -.23252E-3
MEAN_MOTION_DDOT = 0

