STARLINK-37101          
1 68234U 26054C   26085.50002314 -.00035110  00000+0 -17484-3 0  9994
2 68234  53.1592 228.4104 0001142  87.2423 232.9795 15.80900507  2616
STARLINK-36963          
1 68235U 26054D   26085.50002314 -.00024748  00000+0 -12211-3 0  9993
2 68235  53.1592 228.3930 0000976  88.0857 240.6821 15.80889841  2610
STARLINK-37127          
1 68236U 26054E   26085.50002314 -.00746261  00000+0 -40583-2 0  9997
2 68236  53.1593 228.4018 0000786  89.9111 234.5266 15.81173967  2691
STARLINK-37095          
1 68237U 26054F   26085.50002314 -.00068318  00000+0 -34463-3 0  9999
2 68237  53.1591 228.3840 0001419  86.4783 246.5537 15.80915526  2613
STARLINK-37097          
1 68238U 26054G   26085.50002314 -.00059172  00000+0 -29789-3 0  9993
2 68238  53.1591 228.3753 0000808 115.6848 221.6396 15.80903916  2612
STARLINK-37096          
1 68239U 26054H   26085.50002314  .00012972  00000+0  69184-4 0  9993
2 68239  53.1591 228.3576 0001263  80.2559 265.6118 15.80865847  2618
STARLINK-37092          
1 68240U 26054J   26085.50002314  .00011754  00000+0  62965-4 0  9992
2 68240  53.1592 228.3666 0001467  37.5575 303.9967 15.80889209  2616
STARLINK-37094          
1 68241U 26054K   26085.50002314 -.00041838  00000+0 -20932-3 0  9998
2 68241  53.1591 228.3487 0001072  97.0073 253.1424 15.80886974  2602
STARLINK-36356          
1 68242U 26054L   26085.50002314 -.00149843  00000+0 -76655-3 0  9997
2 68242  53.1592 228.3397 0000995  77.9274 276.4752 15.80937895  2653
STARLINK-36345          
1 68243U 26054M   26085.50002314 -.00261468  00000+0 -13534-2 0  9992
2 68243  53.1592 228.3312 0001184  62.7180 295.9036 15.81003524  2655
STARLINK-36310          
1 68244U 26054N   26085.50002314 -.00313836  00000+0 -16312-2 0  9997
2 68244  53.1593 228.3132 0001499  86.1814 280.9607 15.81051085  2653
STARLINK-36247          
1 68245U 26054P   26085.50002314 -.00023252  00000+0 -11444-3 0  9990
2 68245  53.1592 228.3223 0000656 105.1900 257.7576 15.80900906  2657
